{
  "type": "FeatureCollection",
  "features": [
    {
      "type": "Feature",
      "properties": {
        "norad_id": 65943,
        "name": "E-KAGAKU-1",
        "group": "stations",
        "lat": 34.670362965355146,
        "lon": -32.68065632040386,
        "alt_km": 386.7573445435719,
        "timestamp": "2025-12-04T15:47:52.889010+00:00",
        "meta_object_name": "E-KAGAKU-1",
        "meta_object_id": "1998-067XQ",
        "meta_epoch": "2025-12-02T21:39:34.941600",
        "meta_mean_motion": 15.57714998,
        "meta_eccentricity": 0.00035202,
        "meta_inclination": 51.6296,
        "meta_ra_of_asc_node": 189.358,
        "meta_arg_of_pericenter": 147.4331,
        "meta_mean_anomaly": 212.6879,
        "meta_ephemeris_type": 0,
        "meta_classification_type": "U",
        "meta_norad_cat_id": 65943,
        "meta_element_set_no": 999,
        "meta_rev_at_epoch": 832,
        "meta_bstar": 0.00096701912,
        "meta_mean_motion_dot": 0.00073283,
        "meta_mean_motion_ddot": 0,
        "tle_line1": "1 65943U 98067XQ  25336.90248775  .00073283  00000+0  96702-3 0  9997",
        "tle_line2": "2 65943  51.6296 189.3580 0003520 147.4331 212.6879 15.57714998  8329"
      },
      "geometry": {
        "type": "Point",
        "coordinates": [
          -32.68065632040386,
          34.670362965355146
        ]
      }
    },
    {
      "type": "Feature",
      "properties": {
        "norad_id": 66052,
        "name": "HRC MONOBLOCK CAMERA",
        "group": "stations",
        "lat": -51.02262252909045,
        "lon": 80.08229973704334,
        "alt_km": 412.53951912239427,
        "timestamp": "2025-12-04T15:47:52.889020+00:00",
        "meta_object_name": "HRC MONOBLOCK CAMERA",
        "meta_object_id": "1998-067XR",
        "meta_epoch": "2025-12-04T06:57:07.350624",
        "meta_mean_motion": 15.53318158,
        "meta_eccentricity": 0.00043168,
        "meta_inclination": 51.6291,
        "meta_ra_of_asc_node": 183.6143,
        "meta_arg_of_pericenter": 150.6108,
        "meta_mean_anomaly": 209.5126,
        "meta_ephemeris_type": 0,
        "meta_classification_type": "U",
        "meta_norad_cat_id": 66052,
        "meta_element_set_no": 999,
        "meta_rev_at_epoch": 752,
        "meta_bstar": 0.00094005193,
        "meta_mean_motion_dot": 0.00060423,
        "meta_mean_motion_ddot": 0,
        "tle_line1": "1 66052U 98067XR  25338.28966841  .00060423  00000+0  94005-3 0  9999",
        "tle_line2": "2 66052  51.6291 183.6143 0004316 150.6108 209.5126 15.53318158  7525"
      },
      "geometry": {
        "type": "Point",
        "coordinates": [
          80.08229973704334,
          -51.02262252909045
        ]
      }
    },
    {
      "type": "Feature",
      "properties": {
        "norad_id": 66174,
        "name": "HTV-X1",
        "group": "stations",
        "lat": -50.27242728767169,
        "lon": 110.04981216559935,
        "alt_km": 422.80950191973807,
        "timestamp": "2025-12-04T15:47:52.889033+00:00",
        "meta_object_name": "HTV-X1",
        "meta_object_id": "2025-241A",
        "meta_epoch": "2025-12-04T02:12:18.455328",
        "meta_mean_motion": 15.49293095,
        "meta_eccentricity": 0.00036281,
        "meta_inclination": 51.6302,
        "meta_ra_of_asc_node": 185.2932,
        "meta_arg_of_pericenter": 200.9086,
        "meta_mean_anomaly": 159.1754,
        "meta_ephemeris_type": 0,
        "meta_classification_type": "U",
        "meta_norad_cat_id": 66174,
        "meta_element_set_no": 999,
        "meta_rev_at_epoch": 51,
        "meta_bstar": 0.00029177423,
        "meta_mean_motion_dot": 0.00015824,
        "meta_mean_motion_ddot": 0,
        "tle_line1": "1 66174U 25241A   25338.09188027  .00015824  00000+0  29177-3 0  9992",
        "tle_line2": "2 66174  51.6302 185.2932 0003628 200.9086 159.1754 15.49293095   512"
      },
      "geometry": {
        "type": "Point",
        "coordinates": [
          110.04981216559935,
          -50.27242728767169
        ]
      }
    },
    {
      "type": "Feature",
      "properties": {
        "norad_id": 66515,
        "name": "SZ-21 MODULE",
        "group": "stations",
        "lat": -40.76759579099906,
        "lon": -37.25349558164059,
        "alt_km": 382.5445554059097,
        "timestamp": "2025-12-04T15:47:52.889044+00:00",
        "meta_object_name": "SZ-21 MODULE",
        "meta_object_id": "2025-246C",
        "meta_epoch": "2025-12-03T07:59:41.917920",
        "meta_mean_motion": 15.61790567,
        "meta_eccentricity": 0.0005832,
        "meta_inclination": 41.4771,
        "meta_ra_of_asc_node": 73.3983,
        "meta_arg_of_pericenter": 205.8085,
        "meta_mean_anomaly": 154.2464,
        "meta_ephemeris_type": 0,
        "meta_classification_type": "U",
        "meta_norad_cat_id": 66515,
        "meta_element_set_no": 999,
        "meta_rev_at_epoch": 297,
        "meta_bstar": 0.00036812,
        "meta_mean_motion_dot": 0.0003262,
        "meta_mean_motion_ddot": 0,
        "tle_line1": "1 66515U 25246C   25337.33312405  .00032620  00000+0  36812-3 0  9998",
        "tle_line2": "2 66515  41.4771  73.3983 0005832 205.8085 154.2464 15.61790567  2979"
      },
      "geometry": {
        "type": "Point",
        "coordinates": [
          -37.25349558164059,
          -40.76759579099906
        ]
      }
    },
    {
      "type": "Feature",
      "properties": {
        "norad_id": 66645,
        "name": "SHENZHOU-22",
        "group": "stations",
        "lat": 41.40934907371351,
        "lon": 152.77403642321764,
        "alt_km": 388.03136171617734,
        "timestamp": "2025-12-04T15:47:52.889054+00:00",
        "meta_object_name": "SHENZHOU-22",
        "meta_object_id": "2025-272A",
        "meta_epoch": "2025-12-04T07:44:04.873632",
        "meta_mean_motion": 15.58643052,
        "meta_eccentricity": 0.00099613,
        "meta_inclination": 41.4682,
        "meta_ra_of_asc_node": 67.7893,
        "meta_arg_of_pericenter": 326.0847,
        "meta_mean_anomaly": 33.9353,
        "meta_ephemeris_type": 0,
        "meta_classification_type": "U",
        "meta_norad_cat_id": 66645,
        "meta_element_set_no": 999,
        "meta_rev_at_epoch": 26274,
        "meta_bstar": 0.00047338698,
        "meta_mean_motion_dot": 0.00037313,
        "meta_mean_motion_ddot": 0,
        "tle_line1": "1 66645U 25272A   25338.32227863  .00037313  00000+0  47339-3 0  9994",
        "tle_line2": "2 66645  41.4682  67.7893 0009961 326.0847  33.9353 15.58643052262745"
      },
      "geometry": {
        "type": "Point",
        "coordinates": [
          152.77403642321764,
          41.40934907371351
        ]
      }
    },
    {
      "type": "Feature",
      "properties": {
        "norad_id": 66646,
        "name": "CZ-2F R/B",
        "group": "stations",
        "lat": -31.505465410992663,
        "lon": -74.38426779167702,
        "alt_km": 196.51737908968335,
        "timestamp": "2025-12-04T15:47:52.889065+00:00",
        "meta_object_name": "CZ-2F R/B",
        "meta_object_id": "2025-272B",
        "meta_epoch": "2025-11-26T11:17:54.506400",
        "meta_mean_motion": 16.01945612,
        "meta_eccentricity": 0.01210796,
        "meta_inclination": 41.4431,
        "meta_ra_of_asc_node": 114.9009,
        "meta_arg_of_pericenter": 133.7676,
        "meta_mean_anomaly": 227.3272,
        "meta_ephemeris_type": 0,
        "meta_classification_type": "U",
        "meta_norad_cat_id": 66646,
        "meta_element_set_no": 999,
        "meta_rev_at_epoch": 21,
        "meta_bstar": 0.00029319366,
        "meta_mean_motion_dot": 0.00449059,
        "meta_mean_motion_ddot": 7.567612e-06,
        "tle_line1": "1 66646U 25272B   25330.47076975  .00449059  75676-5  29319-3 0  9998",
        "tle_line2": "2 66646  41.4431 114.9009 0121079 133.7676 227.3272 16.01945612   217"
      },
      "geometry": {
        "type": "Point",
        "coordinates": [
          -74.38426779167702,
          -31.505465410992663
        ]
      }
    },
    {
      "type": "Feature",
      "properties": {
        "norad_id": 66664,
        "name": "SOYUZ-MS 28",
        "group": "stations",
        "lat": -50.27242637259108,
        "lon": 110.04981804442228,
        "alt_km": 422.8095020571118,
        "timestamp": "2025-12-04T15:47:52.889093+00:00",
        "meta_object_name": "SOYUZ-MS 28",
        "meta_object_id": "2025-275A",
        "meta_epoch": "2025-12-04T02:12:18.455328",
        "meta_mean_motion": 15.49293095,
        "meta_eccentricity": 0.00036281,
        "meta_inclination": 51.6302,
        "meta_ra_of_asc_node": 185.2932,
        "meta_arg_of_pericenter": 200.9086,
        "meta_mean_anomaly": 159.1754,
        "meta_ephemeris_type": 0,
        "meta_classification_type": "U",
        "meta_norad_cat_id": 66664,
        "meta_element_set_no": 999,
        "meta_rev_at_epoch": 110,
        "meta_bstar": 0.00029177423,
        "meta_mean_motion_dot": 0.00015824,
        "meta_mean_motion_ddot": 0,
        "tle_line1": "1 66664U 25275A   25338.09188027  .00015824  00000+0  29177-3 0  9993",
        "tle_line2": "2 66664  51.6302 185.2932 0003628 200.9086 159.1754 15.49293095  1102"
      },
      "geometry": {
        "type": "Point",
        "coordinates": [
          110.04981804442228,
          -50.27242637259108
        ]
      }
    }
  ]
}